[
    {
        "Altitude(m)": 559025.4571071352,
        "Argument of Periapsis(deg)": 0.033114955553567506,
        "Eccentricity": 0.0,
        "Inclination(deg)": 53.0,
        "Latitude(deg)": 49.31213606698008,
        "Longitude(deg)": 170.35961802911012,
        "Mean Anomaly(deg)": 108.63986433788791,
        "RAAN(deg)": 154.95071684264008,
        "Satellite Name": "Starlink Shell 1 685",
        "Satellite Number": 685,
        "Semi-Major Axis(m)": 6931778.249405717,
        "Time(s)": 950
    },
    {
        "Altitude(m)": 558968.5018900454,
        "Argument of Periapsis(deg)": 0.03346353403307874,
        "Eccentricity": 0.0,
        "Inclination(deg)": 53.0,
        "Latitude(deg)": 49.06320902992524,
        "Longitude(deg)": 171.19644008260752,
        "Mean Anomaly(deg)": 109.26669554144468,
        "RAAN(deg)": 154.95019807256264,
        "Satellite Name": "Starlink Shell 1 685",
        "Satellite Number": 685,
        "Semi-Major Axis(m)": 6931778.249405717,
        "Time(s)": 960
    },
    {
        "Altitude(m)": 558910.0426521857,
        "Argument of Periapsis(deg)": 0.03381211251258998,
        "Eccentricity": 0.0,
        "Inclination(deg)": 53.0,
        "Latitude(deg)": 48.80765960407979,
        "Longitude(deg)": 172.02442636886244,
        "Mean Anomaly(deg)": 109.89352674500132,
        "RAAN(deg)": 154.94967930248515,
        "Satellite Name": "Starlink Shell 1 685",
        "Satellite Number": 685,
        "Semi-Major Axis(m)": 6931778.249405717,
        "Time(s)": 970
    },
    {
        "Altitude(m)": 558850.1151738429,
        "Argument of Periapsis(deg)": 0.034160690992101214,
        "Eccentricity": 0.0,
        "Inclination(deg)": 53.0,
        "Latitude(deg)": 48.54561243474757,
        "Longitude(deg)": 172.8435196586027,
        "Mean Anomaly(deg)": 110.52035794855811,
        "RAAN(deg)": 154.94916053240766,
        "Satellite Name": "Starlink Shell 1 685",
        "Satellite Number": 685,
        "Semi-Major Axis(m)": 6931778.249405717,
        "Time(s)": 980
    },
    {
        "Altitude(m)": 558788.7561816948,
        "Argument of Periapsis(deg)": 0.034509269471612446,
        "Eccentricity": 0.0,
        "Inclination(deg)": 53.0,
        "Latitude(deg)": 48.27719220662411,
        "Longitude(deg)": 173.65367623332327,
        "Mean Anomaly(deg)": 111.14718915211482,
        "RAAN(deg)": 154.9486417623302,
        "Satellite Name": "Starlink Shell 1 685",
        "Satellite Number": 685,
        "Semi-Major Axis(m)": 6931778.249405717,
        "Time(s)": 990
    }
]